H1 CPF  1  DLR 2022 12 24 13  8582 technosat            
H2  1704205 6203    42829 2022 12 24 00 00 00 2022 12 31 00 00 00    60 1 1  0 0 0
H9
10 0 59942  57600.000000  0       4615647.262       5217224.324        326737.860
10 0 59942  57660.000000  0       4686986.201       5163689.451       -122965.170
10 0 59942  57720.000000  0       4738007.168       5087857.807       -572146.441
10 0 59942  57780.000000  0       4768312.760       4990239.866      -1018900.664
10 0 59942  57840.000000  0       4777598.589       4871441.260      -1461334.974
10 0 59942  57900.000000  0       4765655.181       4732159.158      -1897577.098
10 0 59942  57960.000000  0       4732369.424       4573178.228      -2325783.407
10 0 59942  58020.000000  0       4677725.541       4395366.184      -2744146.769
10 0 59942  58080.000000  0       4601805.594       4199669.012      -3150904.227
10 0 59942  58140.000000  0       4504789.461       3987105.831      -3544344.411
10 0 59942  58200.000000  0       4386954.344       3758763.468      -3922814.602
10 0 59942  58260.000000  0       4248673.898       3515790.815      -4284727.495
10 0 59942  58320.000000  0       4090416.901       3259392.934      -4628567.666
10 0 59942  58380.000000  0       3912745.485       2990824.989      -4952897.651
10 0 59942  58440.000000  0       3716312.967       2711386.045      -5256363.666
10 0 59942  58500.000000  0       3501861.234       2422412.746      -5537700.946
10 0 59942  58560.000000  0       3270217.752       2125272.891      -5795738.625
10 0 59942  58620.000000  0       3022292.233       1821358.977      -6029404.216
10 0 59942  58680.000000  0       2759072.909       1512081.720      -6237727.663
10 0 59942  58740.000000  0       2481622.514       1198863.606      -6419844.940
10 0 59942  58800.000000  0       2191073.965        883132.485      -6575001.220
10 0 59942  58860.000000  0       1888625.790        566315.246      -6702553.615
10 0 59942  58920.000000  0       1575537.328        249831.592      -6801973.580
10 0 59942  58980.000000  0       1253123.564        -64912.155      -6872848.974
10 0 59942  59040.000000  0        922749.641       -376529.157      -6914885.535
10 0 59942  59100.000000  0        585825.246       -683657.956      -6927907.857
10 0 59942  59160.000000  0        243798.823       -984968.188      -6911860.021
10 0 59942  59220.000000  0       -101848.409      -1279166.117      -6866805.808
10 0 59942  59280.000000  0       -449608.602      -1564999.965      -6792928.549
10 0 59942  59340.000000  0       -797953.657      -1841265.094      -6690530.579
10 0 59942  59400.000000  0      -1145341.733      -2106808.987      -6560032.193
10 0 59942  59460.000000  0      -1490223.860      -2360535.994      -6401970.134
10 0 59942  59520.000000  0      -1831050.616      -2601411.763      -6216995.666
10 0 59942  59580.000000  0      -2166278.885      -2828467.421      -6005872.260
10 0 59942  59640.000000  0      -2494378.678      -3040803.500      -5769472.884
10 0 59942  59700.000000  0      -2813840.040      -3237593.588      -5508776.873
10 0 59942  59760.000000  0      -3123180.003      -3418087.720      -5224866.317
10 0 59942  59820.000000  0      -3420949.506      -3581615.382      -4918921.935
10 0 59942  59880.000000  0      -3705740.214      -3727588.151      -4592218.549
10 0 59942  59940.000000  0      -3976191.245      -3855501.981      -4246120.155
10 0 59942  60000.000000  0      -4230995.801      -3964939.128      -3882074.599
10 0 59942  60060.000000  0      -4468907.658      -4055569.690      -3501607.828
10 0 59942  60120.000000  0      -4688747.461      -4127152.743      -3106317.734
10 0 59942  60180.000000  0      -4889408.778      -4179537.057      -2697867.620
10 0 59942  60240.000000  0      -5069863.875      -4212661.376      -2277979.316
10 0 59942  60300.000000  0      -5229169.195      -4226554.252      -1848425.990
10 0 59942  60360.000000  0      -5366470.485      -4221333.468      -1411024.666
10 0 59942  60420.000000  0      -5481007.550      -4197205.022       -967628.473
10 0 59942  60480.000000  0      -5572118.588      -4154461.648       -520118.680
10 0 59942  60540.000000  0      -5639244.108      -4093480.930        -70396.557
10 0 59942  60600.000000  0      -5681930.355      -4014723.013        379624.952
10 0 59942  60660.000000  0      -5699832.228      -3918727.875        828029.675
10 0 59942  60720.000000  0      -5692715.634      -3806112.148       1272906.715
10 0 59942  60780.000000  0      -5660459.278      -3677565.563       1712358.914
10 0 59942  60840.000000  0      -5603055.908      -3533847.019       2144511.250
10 0 59942  60900.000000  0      -5520612.990      -3375780.327       2567519.121
10 0 59942  60960.000000  0      -5413352.828      -3204249.687       2979576.500
10 0 59942  61020.000000  0      -5281612.109      -3020194.873       3378923.922
10 0 59942  61080.000000  0      -5125840.887      -2824606.133       3763856.285
10 0 59942  61140.000000  0      -4946600.951      -2618518.848       4132730.359
10 0 59942  61200.000000  0      -4744563.630      -2403008.002       4483971.946
10 0 59942  61260.000000  0      -4520507.088      -2179182.546       4816082.634
10 0 59942  61320.000000  0      -4275313.157      -1948179.660       5127646.229
10 0 59942  61380.000000  0      -4009963.675      -1711158.953       5417334.796
10 0 59942  61440.000000  0      -3725536.394      -1469296.615       5683914.352
10 0 59942  61500.000000  0      -3423200.370      -1223779.494       5926250.156
10 0 59942  61560.000000  0      -3104210.914       -975799.186       6143311.508
10 0 59942  61620.000000  0      -2769904.103       -726546.153       6334176.063
10 0 59942  61680.000000  0      -2421690.926       -477203.902       6498033.599
10 0 59942  61740.000000  0      -2061051.093       -228943.337       6634189.256
10 0 59942  61800.000000  0      -1689526.590         17082.715       6742066.303
10 0 59942  61860.000000  0      -1308714.981        259744.845       6821208.475
10 0 59942  61920.000000  0       -920262.439        497942.283       6871281.805
10 0 59942  61980.000000  0       -525856.532        730607.922       6892075.951
10 0 59942  62040.000000  0       -127218.817        956713.125       6883504.997
10 0 59942  62100.000000  0        273902.721       1175272.303       6845607.784
10 0 59942  62160.000000  0        675741.425       1385347.271       6778547.741
10 0 59942  62220.000000  0       1076519.829       1586051.336       6682612.132
10 0 59942  62280.000000  0       1474457.566       1776553.045       6558210.816
10 0 59942  62340.000000  0       1867779.334       1956079.650       6405874.547
10 0 59942  62400.000000  0       2254722.862       2123920.264       6226252.790
10 0 59942  62460.000000  0       2633546.909       2279428.735       6020111.097
10 0 59942  62520.000000  0       3002539.274       2422026.182       5788327.937
10 0 59942  62580.000000  0       3360024.687       2551203.164       5531891.007
10 0 59942  62640.000000  0       3704372.554       2666521.525       5251893.070
10 0 59942  62700.000000  0       4034004.499       2767615.875       4949527.356
10 0 59942  62760.000000  0       4347401.753       2854194.724       4626082.561
10 0 59942  62820.000000  0       4643112.312       2926041.208       4282937.425
10 0 59942  62880.000000  0       4919757.996       2983013.496       3921555.019
10 0 59942  62940.000000  0       5176041.332       3025044.845       3543476.259
10 0 59942  63000.000000  0       5410751.616       3052142.996       3150313.030
10 0 59942  63060.000000  0       5622770.699       3064389.387       2743741.414
10 0 59942  63120.000000  0       5811078.540       3061938.080       2325494.401
10 0 59942  63180.000000  0       5974758.261       3045014.237       1897354.316
10 0 59942  63240.000000  0       6113000.722       3013912.221       1461144.994
10 0 59942  63300.000000  0       6225108.573       2968993.353       1018723.751
10 0 59942  63360.000000  0       6310499.733       2910683.315        571973.185
10 0 59942  63420.000000  0       6368710.300       2839469.236        122792.910
10 0 59942  63480.000000  0       6399396.899       2755896.457       -326908.809
10 0 59942  63540.000000  0       6402338.374       2660564.957       -775223.409
10 0 59942  63600.000000  0       6377436.876       2554125.606      -1220250.226
10 0 59942  63660.000000  0       6324718.520       2437276.281      -1660104.652
10 0 59942  63720.000000  0       6244333.454       2310757.736      -2092926.312
10 0 59942  63780.000000  0       6136555.213       2175349.220      -2516887.116
10 0 59942  63840.000000  0       6001779.485       2031863.938      -2930198.992
10 0 59942  63900.000000  0       5840522.376       1881144.431      -3331121.413
10 0 59942  63960.000000  0       5653418.095       1724057.847      -3717968.698
10 0 59942  64020.000000  0       5441216.087       1561491.113      -4089117.015
10 0 59942  64080.000000  0       5204777.583       1394346.096      -4443011.022
10 0 59942  64140.000000  0       4945071.709       1223534.790      -4778170.070
10 0 59942  64200.000000  0       4663171.216       1049974.558      -5093194.080
10 0 59942  64260.000000  0       4360247.772        874583.376      -5386769.079
10 0 59942  64320.000000  0       4037566.845        698275.166      -5657672.300
10 0 59942  64380.000000  0       3696482.240        521955.217      -5904776.919
10 0 59942  64440.000000  0       3338430.224        346515.740      -6127056.386
10 0 59942  64500.000000  0       2964923.342        172831.540      -6323588.248
10 0 59942  64560.000000  0       2577544.032          1755.827      -6493557.572
10 0 59942  64620.000000  0       2177937.952       -165883.785      -6636259.943
10 0 59942  64680.000000  0       1767807.147       -329289.095      -6751104.045
10 0 59942  64740.000000  0       1348902.960       -487694.984      -6837613.929
99
